{
    "links": {
        "self": "http://www.neowsapp.com/rest/v1/neo/3617956?api_key=iIulBulltgU6a56xZRHN4H3l9WmuAYTsLGpBGhQ2"
    },
    "id": "3617956",
    "neo_reference_id": "3617956",
    "name": "(2012 VF77)",
    "designation": "2012 VF77",
    "nasa_jpl_url": "http://ssd.jpl.nasa.gov/sbdb.cgi?sstr=3617956",
    "absolute_magnitude_h": 26.2,
    "estimated_diameter": {
        "kilometers": {
            "estimated_diameter_min": 0.0152951935,
            "estimated_diameter_max": 0.0342010925
        },
        "meters": {
            "estimated_diameter_min": 15.2951935344,
            "estimated_diameter_max": 34.201092472
        },
        "miles": {
            "estimated_diameter_min": 0.0095039897,
            "estimated_diameter_max": 0.021251567
        },
        "feet": {
            "estimated_diameter_min": 50.1810827555,
            "estimated_diameter_max": 112.2083122258
        }
    },
    "is_potentially_hazardous_asteroid": false,
    "close_approach_data": [
        {
            "close_approach_date": "2012-11-04",
            "close_approach_date_full": "2012-Nov-04 22:20",
            "epoch_date_close_approach": 1352067600000,
            "relative_velocity": {
                "kilometers_per_second": "11.2526077155",
                "kilometers_per_hour": "40509.3877756808",
                "miles_per_hour": "25170.9581987279"
            },
            "miss_distance": {
                "astronomical": "0.0403929143",
                "lunar": "15.7128436627",
                "kilometers": "6042693.942372541",
                "miles": "3754755.9054454258"
            },
            "orbiting_body": "Earth"
        }
    ],
    "orbital_data": {
        "orbit_id": "6",
        "orbit_determination_date": "2017-04-06 08:47:59",
        "first_observation_date": "2012-11-14",
        "last_observation_date": "2012-11-19",
        "data_arc_in_days": 5,
        "observations_used": 18,
        "orbit_uncertainty": "9",
        "minimum_orbit_intersection": ".0115684",
        "jupiter_tisserand_invariant": "3.199",
        "epoch_osculation": "2456247.5",
        "eccentricity": ".6118671211403214",
        "semi_major_axis": "2.465278755727158",
        "inclination": "2.341621699441012",
        "ascending_node_longitude": "51.54874781393478",
        "orbital_period": "1413.830924649661",
        "perihelion_distance": ".9568557406519884",
        "perihelion_argument": "317.5464404297475",
        "aphelion_distance": "3.973701770802328",
        "perihelion_time": "2456211.696883707955",
        "mean_anomaly": "9.116452073878673",
        "mean_motion": ".2546273346575765",
        "equinox": "J2000",
        "orbit_class": {
            "orbit_class_type": "APO",
            "orbit_class_description": "Near-Earth asteroid orbits which cross the Earth’s orbit similar to that of 1862 Apollo",
            "orbit_class_range": "a (semi-major axis) > 1.0 AU; q (perihelion) < 1.017 AU"
        }
    },
    "is_sentry_object": false
}